[{"PostalCode": "M1J", "Longname": "Scarborough", "Latitude": 43.7447342, "Longitude": -79.23947609999999}, {"PostalCode": "M1B", "Longname": "Scarborough", "Latitude": 43.8066863, "Longitude": -79.1943534}, {"PostalCode": "M1C", "Longname": "Scarborough", "Latitude": 43.78453510000001, "Longitude": -79.1604971}, {"PostalCode": "M1E", "Longname": "Scarborough", "Latitude": 43.7635726, "Longitude": -79.1887115}, {"PostalCode": "M1G", "Longname": "Scarborough", "Latitude": 43.7709921, "Longitude": -79.2169174}, {"PostalCode": "M1H", "Longname": "Scarborough", "Latitude": 43.773136, "Longitude": -79.23947609999999}, {"PostalCode": "M1J", "Longname": "Scarborough", "Latitude": 43.7447342, "Longitude": -79.23947609999999}, {"PostalCode": "M1K", "Longname": "Scarborough", "Latitude": 43.7279292, "Longitude": -79.2620294}, {"PostalCode": "M1L", "Longname": "North York", "Latitude": 43.7111117, "Longitude": -79.2845772}, {"PostalCode": "M1M", "Longname": "Scarborough", "Latitude": 43.716316, "Longitude": -79.23947609999999}, {"PostalCode": "M1N", "Longname": "Scarborough", "Latitude": 43.692657, "Longitude": -79.2648481}, {"PostalCode": "M1P", "Longname": "Scarborough", "Latitude": 43.7574096, "Longitude": -79.273304}, {"PostalCode": "M1R", "Longname": "North York", "Latitude": 43.7500715, "Longitude": -79.2958491}, {"PostalCode": "M1S", "Longname": "Scarborough", "Latitude": 43.7942003, "Longitude": -79.2620294}, {"PostalCode": "M1T", "Longname": "Scarborough", "Latitude": 43.7816375, "Longitude": -79.3043021}, {"PostalCode": "M1V", "Longname": "Scarborough", "Latitude": 43.8152522, "Longitude": -79.2845772}, {"PostalCode": "M1W", "Longname": "Scarborough", "Latitude": 43.7995252, "Longitude": -79.3183887}, {"PostalCode": "M1X", "Longname": "Scarborough", "Latitude": 43.8361247, "Longitude": -79.20563609999999}, {"PostalCode": "M2H", "Longname": "North York", "Latitude": 43.8037622, "Longitude": -79.3634517}, {"PostalCode": "M2J", "Longname": "North York", "Latitude": 43.7785175, "Longitude": -79.3465557}, {"PostalCode": "M2K", "Longname": "North York", "Latitude": 43.7869473, "Longitude": -79.385975}, {"PostalCode": "M2L", "Longname": "North York", "Latitude": 43.7574902, "Longitude": -79.37471409999999}, {"PostalCode": "M2N", "Longname": "North York", "Latitude": 43.7701199, "Longitude": -79.40849279999999}, {"PostalCode": "M2P", "Longname": "North York", "Latitude": 43.7527583, "Longitude": -79.40004929999999}, {"PostalCode": "M2R", "Longname": "North York", "Latitude": 43.7827364, "Longitude": -79.4422593}, {"PostalCode": "M3A", "Longname": "North York", "Latitude": 43.7532586, "Longitude": -79.3296565}, {"PostalCode": "M3B", "Longname": "North York", "Latitude": 43.7459058, "Longitude": -79.352188}, {"PostalCode": "M3C", "Longname": "North York", "Latitude": 43.7258997, "Longitude": -79.34092299999999}, {"PostalCode": "M3H", "Longname": "North York", "Latitude": 43.7543283, "Longitude": -79.4422593}, {"PostalCode": "M3J", "Longname": "North York", "Latitude": 43.7679803, "Longitude": -79.4872619}, {"PostalCode": "M3K", "Longname": "North York", "Latitude": 43.7374732, "Longitude": -79.4647633}, {"PostalCode": "M3L", "Longname": "North York", "Latitude": 43.7390146, "Longitude": -79.5069436}, {"PostalCode": "M3M", "Longname": "North York", "Latitude": 43.7284964, "Longitude": -79.4956974}, {"PostalCode": "M3N", "Longname": "North York", "Latitude": 43.7616313, "Longitude": -79.5209994}, {"PostalCode": "M4A", "Longname": "North York", "Latitude": 43.72588229999999, "Longitude": -79.3155716}, {"PostalCode": "M4B", "Longname": "Toronto", "Latitude": 43.7063972, "Longitude": -79.30993699999999}, {"PostalCode": "M4C", "Longname": "Toronto", "Latitude": 43.6953439, "Longitude": -79.3183887}, {"PostalCode": "M4E", "Longname": "Toronto", "Latitude": 43.6763574, "Longitude": -79.2930312}, {"PostalCode": "M4G", "Longname": "North York", "Latitude": 43.7090604, "Longitude": -79.3634517}, {"PostalCode": "M4H", "Longname": "Toronto", "Latitude": 43.7053689, "Longitude": -79.3493719}, {"PostalCode": "M4J", "Longname": "Toronto", "Latitude": 43.685347, "Longitude": -79.3381065}, {"PostalCode": "M4K", "Longname": "Toronto", "Latitude": 43.6795571, "Longitude": -79.352188}, {"PostalCode": "M4L", "Longname": "Old Toronto", "Latitude": 43.6689985, "Longitude": -79.3155716}, {"PostalCode": "M4M", "Longname": "Toronto", "Latitude": 43.6595255, "Longitude": -79.34092299999999}, {"PostalCode": "M4N", "Longname": "Toronto", "Latitude": 43.7280205, "Longitude": -79.3887901}, {"PostalCode": "M4P", "Longname": "North York", "Latitude": 43.7127511, "Longitude": -79.3901975}, {"PostalCode": "M4R", "Longname": "North York", "Latitude": 43.7153834, "Longitude": -79.4056784}, {"PostalCode": "M4S", "Longname": "Old Toronto", "Latitude": 43.7043244, "Longitude": -79.3887901}, {"PostalCode": "M4T", "Longname": "Old Toronto", "Latitude": 43.6895743, "Longitude": -79.3831599}, {"PostalCode": "M4V", "Longname": "Old Toronto", "Latitude": 43.6864123, "Longitude": -79.40004929999999}, {"PostalCode": "M4W", "Longname": "Old Toronto", "Latitude": 43.6795626, "Longitude": -79.3775294}, {"PostalCode": "M4X", "Longname": "Old Toronto", "Latitude": 43.667967, "Longitude": -79.3676753}, {"PostalCode": "M4Y", "Longname": "Old Toronto", "Latitude": 43.6658599, "Longitude": -79.3831599}, {"PostalCode": "M5A", "Longname": "Old Toronto", "Latitude": 43.6542599, "Longitude": -79.36063589999999}, {"PostalCode": "M5B", "Longname": "Old Toronto", "Latitude": 43.6571618, "Longitude": -79.3789371}, {"PostalCode": "M5C", "Longname": "Old Toronto", "Latitude": 43.6514939, "Longitude": -79.3754179}, {"PostalCode": "M5E", "Longname": "Old Toronto", "Latitude": 43.6447708, "Longitude": -79.37330639999999}, {"PostalCode": "M5G", "Longname": "Old Toronto", "Latitude": 43.6579524, "Longitude": -79.3873826}, {"PostalCode": "M5H", "Longname": "Old Toronto", "Latitude": 43.65057119999999, "Longitude": -79.3845675}, {"PostalCode": "M5J", "Longname": "Toronto", "Latitude": 43.6408157, "Longitude": -79.3817523}, {"PostalCode": "M5K", "Longname": "Old Toronto", "Latitude": 43.6471768, "Longitude": -79.3815764}, {"PostalCode": "M5L", "Longname": "Old Toronto", "Latitude": 43.6481985, "Longitude": -79.3798169}, {"PostalCode": "M5M", "Longname": "Toronto", "Latitude": 43.7332825, "Longitude": -79.4197497}, {"PostalCode": "M5N", "Longname": "Old Toronto", "Latitude": 43.7116948, "Longitude": -79.4169356}, {"PostalCode": "M5P", "Longname": "York", "Latitude": 43.6969476, "Longitude": -79.4113072}, {"PostalCode": "M5R", "Longname": "Old Toronto", "Latitude": 43.6727097, "Longitude": -79.4056784}, {"PostalCode": "M5S", "Longname": "Old Toronto", "Latitude": 43.6626956, "Longitude": -79.40004929999999}, {"PostalCode": "M5T", "Longname": "Old Toronto", "Latitude": 43.6532057, "Longitude": -79.40004929999999}, {"PostalCode": "M5V", "Longname": "Toronto", "Latitude": 43.6289467, "Longitude": -79.3944199}, {"PostalCode": "M5W", "Longname": "Old Toronto", "Latitude": 43.6464352, "Longitude": -79.37484599999999}, {"PostalCode": "M5X", "Longname": "Old Toronto", "Latitude": 43.6484292, "Longitude": -79.3822802}, {"PostalCode": "M6A", "Longname": "North York", "Latitude": 43.718518, "Longitude": -79.4647633}, {"PostalCode": "M6B", "Longname": "Toronto", "Latitude": 43.709577, "Longitude": -79.4450726}, {"PostalCode": "M6C", "Longname": "Midtown Toronto", "Latitude": 43.6937813, "Longitude": -79.4281914}, {"PostalCode": "M6E", "Longname": "Toronto", "Latitude": 43.68902560000001, "Longitude": -79.453512}, {"PostalCode": "M6G", "Longname": "Old Toronto", "Latitude": 43.669542, "Longitude": -79.4225637}, {"PostalCode": "M6H", "Longname": "Old Toronto", "Latitude": 43.6690051, "Longitude": -79.4422593}, {"PostalCode": "M6J", "Longname": "Old Toronto", "Latitude": 43.6479267, "Longitude": -79.4197497}, {"PostalCode": "M6K", "Longname": "Old Toronto", "Latitude": 43.6368472, "Longitude": -79.4281914}, {"PostalCode": "M6L", "Longname": "North York", "Latitude": 43.7137562, "Longitude": -79.49007379999999}, {"PostalCode": "M6M", "Longname": "Toronto", "Latitude": 43.6911158, "Longitude": -79.47601329999999}, {"PostalCode": "M6N", "Longname": "Toronto", "Latitude": 43.6731853, "Longitude": -79.4872619}, {"PostalCode": "M6P", "Longname": "Toronto", "Latitude": 43.6616083, "Longitude": -79.4647633}, {"PostalCode": "M6R", "Longname": "Old Toronto", "Latitude": 43.6489597, "Longitude": -79.45632499999999}, {"PostalCode": "M6S", "Longname": "Toronto", "Latitude": 43.6515706, "Longitude": -79.4844499}, {"PostalCode": "M7A", "Longname": "North York", "Latitude": 43.6623015, "Longitude": -79.3894938}, {"PostalCode": "M8V", "Longname": "Etobicoke", "Latitude": 43.6056466, "Longitude": -79.5013207}, {"PostalCode": "M8W", "Longname": "Etobicoke", "Latitude": 43.6024137, "Longitude": -79.5434841}, {"PostalCode": "M8X", "Longname": "Etobicoke", "Latitude": 43.6536536, "Longitude": -79.5069436}, {"PostalCode": "M8Y", "Longname": "Etobicoke", "Latitude": 43.6362579, "Longitude": -79.49850909999999}, {"PostalCode": "M8Z", "Longname": "Etobicoke", "Latitude": 43.6288408, "Longitude": -79.5209994}, {"PostalCode": "M9A", "Longname": "Etobicoke", "Latitude": 43.6678556, "Longitude": -79.5322424}, {"PostalCode": "M9B", "Longname": "Etobicoke", "Latitude": 43.65094320000001, "Longitude": -79.5547244}, {"PostalCode": "M9C", "Longname": "Etobicoke", "Latitude": 43.6435152, "Longitude": -79.5772008}, {"PostalCode": "M9L", "Longname": "North York", "Latitude": 43.7563033, "Longitude": -79.56596329999999}, {"PostalCode": "M9M", "Longname": "North York", "Latitude": 43.7247659, "Longitude": -79.5322424}, {"PostalCode": "M9N", "Longname": "Toronto", "Latitude": 43.706876, "Longitude": -79.5181884}, {"PostalCode": "M9P", "Longname": "Etobicoke", "Latitude": 43.696319, "Longitude": -79.5322424}, {"PostalCode": "M9R", "Longname": "Etobicoke", "Latitude": 43.6889054, "Longitude": -79.5547244}, {"PostalCode": "M9V", "Longname": "Etobicoke", "Latitude": 43.7394164, "Longitude": -79.58843689999999}, {"PostalCode": "M9W", "Longname": "Etobicoke", "Latitude": 43.7067483, "Longitude": -79.59405439999999}]
